NORAD_CAT_ID,OBJECT_NAME,OBJECT_TYPE,EPOCH,MEAN_MOTION,ECCENTRICITY,INCLINATION,RA_OF_ASC_NODE,ARG_OF_PERICENTER,MEAN_ANOMALY,BSTAR,MEAN_MOTION_DOT,MEAN_MOTION_DDOT,TLE_LINE0,TLE_LINE1,TLE_LINE2,SEMIMAJOR_AXIS,PERIOD,APOGEE,PERIGEE,DECAYED
55745.0,STARLINK-5565,PAYLOAD,2023-04-26 14:00:01,15.1317418,0.0003232,70.0017,7.5671,267.1343,49.1312,-0.053232,-0.00879136,0.0,0 STARLINK-5565,1 55745U 23028E   23116.58334491 -.00879136  00000-0 -53232-1 0  9993,2 55745  70.0017   7.5671 0003232 267.1343  49.1312 15.13174180  1300,6904.664,95.164,528.761,524.298,0.0
55745.0,STARLINK-5565,PAYLOAD,2023-04-26 22:00:00,15.12527958,0.0003249,70.0018,6.7076,272.0683,59.1135,-0.056333,-0.00911162,0.0,0 STARLINK-5565,1 55745U 23028E   23116.91667824 -.00911162  00000-0 -56333-1 0  9990,2 55745  70.0018   6.7076 0003249 272.0683  59.1135 15.12527958  1309,6906.631,95.205,530.74,526.252,0.0
55745.0,STARLINK-5565,PAYLOAD,2023-04-27 14:00:01,15.11219017,0.0003276,70.0016,4.9912,268.7178,89.9922,-0.056479,-0.00882881,0.0,0 STARLINK-5565,1 55745U 23028E   23117.58335648 -.00882881  00000-0 -56479-1 0  9996,2 55745  70.0016   4.9912 0003276 268.7178  89.9922 15.11219017  9189,6910.618,95.287,534.747,530.219,0.0
55745.0,STARLINK-5565,PAYLOAD,2023-04-28 06:00:02,15.09958892,0.0003208,70.0015,3.2781,275.897,107.1451,-0.064886,-0.00972042,0.0,0 STARLINK-5565,1 55745U 23028E   23118.25002315 -.00972042  00000-0 -64886-1 0  9993,2 55745  70.0015   3.2781 0003208 275.8970 107.1451 15.09958892  9287,6914.462,95.367,538.546,534.109,0.0
55745.0,STARLINK-5565,PAYLOAD,2023-04-28 14:00:01,15.09266373,0.0003235,70.0016,2.423,269.7185,124.2684,-0.060094,-0.0088949,0.0,0 STARLINK-5565,1 55745U 23028E   23118.58334491 -.00889490  00000-0 -60094-1 0  9993,2 55745  70.0016   2.4230 0003235 269.7185 124.2684 15.09266373  1307,6916.577,95.411,540.68,536.205,0.0
55745.0,STARLINK-5565,PAYLOAD,2023-04-28 22:00:00,15.08610178,0.0003182,70.0017,1.5687,274.4052,129.8068,-0.062274,-0.00904147,0.0,0 STARLINK-5565,1 55745U 23028E   23118.91667824 -.00904147  00000-0 -62274-1 0  9998,2 55745  70.0017   1.5687 0003182 274.4052 129.8068 15.08610178  9389,6918.583,95.452,542.649,538.246,0.0
55745.0,STARLINK-5565,PAYLOAD,2023-04-29 14:00:01,15.0731376,0.0003134,70.0016,359.8625,270.297,152.0512,-0.063853,-0.00895457,0.0,0 STARLINK-5565,1 55745U 23028E   23119.58335648 -.00895457  00000-0 -63853-1 0  9995,2 55745  70.0016 359.8625 0003134 270.2970 152.0512 15.07313760  1301,6922.549,95.534,546.584,542.245,0.0
55745.0,STARLINK-5565,PAYLOAD,2023-04-29 22:00:00,15.06653197,0.0003127,70.0018,359.0108,275.2063,154.9592,-0.065585,-0.00902802,0.0,0 STARLINK-5565,1 55745U 23028E   23119.91667824 -.00902802  00000-0 -65585-1 0  9993,2 55745  70.0018 359.0108 0003127 275.2063 154.9592 15.06653197  9533,6924.573,95.576,548.603,544.272,0.0
55745.0,STARLINK-5565,PAYLOAD,2023-04-30 14:00:01,15.05362697,0.0003089,70.0016,357.3098,270.2932,173.2506,-0.068111,-0.00905209,0.0,0 STARLINK-5565,1 55745U 23028E   23120.58334491 -.00905209  00000-0 -68111-1 0  9991,2 55745  70.0016 357.3098 0003089 270.2932 173.2506 15.05362697  1304,6928.53,95.658,552.535,548.254,0.0
55745.0,STARLINK-5565,PAYLOAD,2023-04-30 22:00:00,15.04694303,0.0003064,70.0018,356.4606,275.2211,173.8582,-0.068833,-0.00898972,0.0,0 STARLINK-5565,1 55745U 23028E   23120.91667824 -.00898972  00000-0 -68833-1 0  9996,2 55745  70.0018 356.4606 0003064 275.2211 173.8582 15.04694303  9689,6930.581,95.701,554.57,550.323,0.0
55745.0,STARLINK-5565,PAYLOAD,2023-05-01 14:00:01,15.03411272,0.0003035,70.0016,354.7647,269.5196,188.2421,-0.072544,-0.00914221,0.0,0 STARLINK-5565,1 55745U 23028E   23121.58334491 -.00914221  00000-0 -72544-1 0  9991,2 55745  70.0016 354.7647 0003035 269.5196 188.2421 15.03411272  9783,6934.524,95.782,558.493,554.284,0.0
55745.0,STARLINK-5565,PAYLOAD,2023-05-01 22:00:00,15.02735462,0.0003024,70.0017,353.9181,274.5347,186.4176,-0.072151,-0.00894559,0.0,0 STARLINK-5565,1 55745U 23028E   23121.91667824 -.00894559  00000-0 -72151-1 0  9992,2 55745  70.0017 353.9181 0003024 274.5347 186.4176 15.02735462  1306,6936.603,95.825,560.565,556.37,0.0
55745.0,STARLINK-5565,PAYLOAD,2023-05-02 06:00:00,15.02123862,0.0003023,70.0013,353.0722,274.978,188.3515,-0.079302,-0.0097305,0.0,0 STARLINK-5565,1 55745U 23028E   23122.25001157 -.00973050  00000-0 -79302-1 0  9990,2 55745  70.0013 353.0722 0003023 274.9780 188.3515 15.02123862  9882,6938.485,95.864,562.448,558.253,0.0
55745.0,STARLINK-5565,PAYLOAD,2023-05-02 14:00:01,15.01459634,0.0003002,70.0014,352.2272,268.2421,196.7605,-0.077176,-0.00922759,0.0,0 STARLINK-5565,1 55745U 23028E   23122.58335648 -.00922759  00000-0 -77176-1 0  9998,2 55745  70.0014 352.2272 0003002 268.2421 196.7605 15.01459634  1309,6940.532,95.907,564.48,560.313,0.0
55745.0,STARLINK-5565,PAYLOAD,2023-05-02 22:00:00,15.00776019,0.0002985,70.0014,351.3832,273.7072,192.0777,-0.075501,-0.00889184,0.0,0 STARLINK-5565,1 55745U 23028E   23122.91667824 -.00889184  00000-0 -75501-1 0  9993,2 55745  70.0014 351.3832 0002985 273.7072 192.0777 15.00776019  9982,6942.639,95.95,566.576,562.432,0.0
55745.0,STARLINK-5565,PAYLOAD,2023-05-03 14:00:01,14.99336478,0.0003223,70.0012,349.6975,266.2962,198.8006,-0.0027596,-0.0003373,0.0,0 STARLINK-5565,1 55745U 23028E   23123.58334491 -.00033730  00000-0 -27596-2 0  9998,2 55745  70.0012 349.6975 0003223 266.2962 198.8006 14.99336478 10089,6947.082,96.042,571.186,566.708,0.0
55745.0,STARLINK-5565,PAYLOAD,2023-05-03 22:00:00,14.99295411,0.0003282,70.0011,348.8556,272.6199,191.1585,-0.00030735,-3.852e-05,0.0,0 STARLINK-5565,1 55745U 23028E   23123.91667824 -.00003852  00000-0 -30735-3 0  9996,2 55745  70.0011 348.8556 0003282 272.6199 191.1585 14.99295411  1306,6947.209,96.045,571.354,566.794,0.0
55745.0,STARLINK-5565,PAYLOAD,2023-05-04 14:00:01,14.99289076,0.0003349,70.001,347.1721,267.5535,193.5662,0.0033022,0.00040534,0.0,0 STARLINK-5565,1 55745U 23028E   23124.58335648  .00040534  00000-0  33022-2 0  9993,2 55745  70.0010 347.1721 0003349 267.5535 193.5662 14.99289076 10236,6947.229,96.046,571.42,566.767,0.0
55745.0,STARLINK-5565,PAYLOAD,2023-05-04 22:00:01,14.99315784,0.0003358,70.0008,346.3304,271.7421,188.0378,-0.0026156,-0.00031966,0.0,0 STARLINK-5565,1 55745U 23028E   23124.91668981 -.00031966  00000-0 -26156-2 0  9990,2 55745  70.0008 346.3304 0003358 271.7421 188.0378 14.99315784  1309,6947.146,96.044,571.344,566.678,0.0
55745.0,STARLINK-5565,PAYLOAD,2023-05-05 06:00:00,14.99311981,0.0003317,70.0005,345.4885,270.7299,187.6341,-0.0034973,-0.00042642,0.0,0 STARLINK-5565,1 55745U 23028E   23125.25001157 -.00042642  00000-0 -34973-2 0  9993,2 55745  70.0005 345.4885 0003317 270.7299 187.6341 14.99311981 10330,6947.158,96.044,571.327,566.718,0.0
55745.0,STARLINK-5565,PAYLOAD,2023-05-05 22:00:00,14.99301287,0.0003347,70.0005,343.8051,271.8308,183.8278,-0.00086102,-0.00010614,0.0,0 STARLINK-5565,1 55745U 23028E   23125.91667824 -.00010614  00000-0 -86102-3 0  9991,2 55745  70.0005 343.8051 0003347 271.8308 183.8278 14.99301287 10439,6947.191,96.045,571.381,566.731,0.0
55745.0,STARLINK-5565,PAYLOAD,2023-05-06 16:00:00,14.99322946,0.0003301,70.0005,341.911,267.7628,274.8322,-0.001914,-0.0002345,0.0,0 STARLINK-5565,1 55745U 23028E   23126.66667824 -.00023450  00000-0 -19140-2 0  9993,2 55745  70.0005 341.9110 0003301 267.7628 274.8322 14.99322946  1305,6947.124,96.043,571.282,566.696,0.0
55745.0,STARLINK-5565,PAYLOAD,2023-05-06 22:00:00,14.99301988,0.0003316,70.0002,341.2817,276.971,174.6166,-0.00023679,-2.99e-05,0.0,0 STARLINK-5565,1 55745U 23028E   23126.91667824 -.00002990  00000-0 -23679-3 0  9990,2 55745  70.0002 341.2817 0003316 276.9710 174.6166 14.99301988 10585,6947.189,96.045,571.357,566.75,0.0
55745.0,STARLINK-5565,PAYLOAD,2023-05-07 00:47:43,14.99307421,0.0003208,69.9986,340.9852,271.129,88.9502,5.4017e-05,5.67e-06,0.0,0 STARLINK-5565,1 55745U 23028E   23127.03314470  .00000567  00000-0  54017-4 0  9997,2 55745  69.9986 340.9852 0003208 271.1290  88.9502 14.99307421 10600,6947.172,96.044,571.266,566.808,0.0
55745.0,STARLINK-5565,PAYLOAD,2023-05-07 20:00:36,14.99293096,0.0002868,69.9994,338.9628,265.6059,94.4772,-2.5292e-05,-4.03e-06,0.0,0 STARLINK-5565,1 55745U 23028E   23127.83375850 -.00000403  00000-0 -25292-4 0  9998,2 55745  69.9994 338.9628 0002868 265.6059  94.4772 14.99293096 10725,6947.216,96.045,571.074,567.089,0.0
55745.0,STARLINK-5565,PAYLOAD,2023-05-07 21:36:41,14.99292919,0.0002868,69.9994,338.7944,265.559,94.5242,-2.7099e-05,-4.25e-06,0.0,0 STARLINK-5565,1 55745U 23028E   23127.90047572 -.00000425  00000-0 -27099-4 0  9994,2 55745  69.9994 338.7944 0002868 265.5590  94.5242 14.99292919 10730,6947.217,96.045,571.074,567.089,0.0
55745.0,STARLINK-5565,PAYLOAD,2023-05-08 07:13:06,14.99298229,0.0002907,69.9994,337.7846,270.1768,89.9058,-1.85e-05,-3.2e-06,0.0,0 STARLINK-5565,1 55745U 23028E   23128.30077432 -.00000320  00000-0 -18500-4 0  9998,2 55745  69.9994 337.7846 0002907 270.1768  89.9058 14.99298229 10792,6947.2,96.045,571.085,567.046,0.0
55745.0,STARLINK-5565,PAYLOAD,2023-05-09 23:14:55,14.99297477,0.0003024,69.9988,333.5717,268.4964,91.5849,4.9545e-05,5.12e-06,0.0,0 STARLINK-5565,1 55745U 23028E   23129.96869217  .00000512  00000-0  49545-4 0  9995,2 55745  69.9988 333.5717 0003024 268.4964  91.5849 14.99297477 11045,6947.203,96.045,571.168,566.967,0.0
55745.0,STARLINK-5565,PAYLOAD,2023-05-10 18:27:46,14.99300646,0.0002982,69.9989,331.5501,268.3523,91.7295,-1.2308e-05,-2.44e-06,0.0,0 STARLINK-5565,1 55745U 23028E   23130.76929389 -.00000244  00000-0 -12308-4 0  9993,2 55745  69.9989 331.5501 0002982 268.3523  91.7295 14.99300646 11160,6947.193,96.045,571.13,566.986,0.0
55745.0,STARLINK-5565,PAYLOAD,2023-05-10 23:15:59,14.99303046,0.000293,69.9989,331.0441,267.1966,92.8858,-5.3664e-06,-1.6e-06,0.0,0 STARLINK-5565,1 55745U 23028E   23130.96944230 -.00000160  00000-0 -53664-5 0  9995,2 55745  69.9989 331.0441 0002930 267.1966  92.8858 14.99303046 11196,6947.185,96.045,571.086,567.015,0.0
